CCSDS_OMM_VERS = 2.0
CREATION_DATE  = 
ORIGINATOR     = 

OBJECT_NAME    = STARLINK-37107
OBJECT_ID      = 2026-057A
CENTER_NAME    = EARTH
REF_FRAME      = TEME
TIME_SYSTEM    = UTC
MEAN_ELEMENT_THEORY = SGP/SGP4

EPOCH          = 2026-04-04T22:00:01.999584
MEAN_MOTION    = 15.83313916
ECCENTRICITY   = .00015349
INCLINATION    = 97.2826
RA_OF_ASC_NODE = 218.5738
ARG_OF_PERICENTER = 73.8781
MEAN_ANOMALY   = 55.4692

EPHEMERIS_TYPE = 0
CLASSIFICATION_TYPE = U
NORAD_CAT_ID   = 68294
ELEMENT_SET_NO = 999
REV_AT_EPOCH   = 337
BSTAR          = -.75364597E-2
MEAN_MOTION_DOT = -.1412596E-1
MEAN_MOTION_DDOT = 0

CCSDS_OMM_VERS = 2.0
CREATION_DATE  = 
ORIGINATOR     = 

OBJECT_NAME    = STARLINK-37147
OBJECT_ID      = 2026-057B
CENTER_NAME    = EARTH
REF_FRAME      = TEME
TIME_SYSTEM    = UTC
MEAN_ELEMENT_THEORY = SGP/SGP4

EPOCH          = 2026-04-04T22:00:01.999584
MEAN_MOTION    = 15.83356770
ECCENTRICITY   = .00014592
INCLINATION    = 97.2818
RA_OF_ASC_NODE = 218.5746
ARG_OF_PERICENTER = 80.4278
MEAN_ANOMALY   = 53.0821

EPHEMERIS_TYPE = 0
CLASSIFICATION_TYPE = U
NORAD_CAT_ID   = 68295
ELEMENT_SET_NO = 999
REV_AT_EPOCH   = 336
BSTAR          = -.75225213E-2
MEAN_MOTION_DOT = -.1412764E-1
MEAN_MOTION_DDOT = 0

CCSDS_OMM_VERS = 2.0
CREATION_DATE  = 
ORIGINATOR     = 

OBJECT_NAME    = STARLINK-37142
OBJECT_ID      = 2026-057C
CENTER_NAME    = EARTH
REF_FRAME      = TEME
TIME_SYSTEM    = UTC
MEAN_ELEMENT_THEORY = SGP/SGP4

EPOCH          = 2026-04-04T22:00:01.999584
MEAN_MOTION    = 15.83408874
ECCENTRICITY   = .00016594
INCLINATION    = 97.2813
RA_OF_ASC_NODE = 218.5796
ARG_OF_PERICENTER = 78.1399
MEAN_ANOMALY   = 68.2180

EPHEMERIS_TYPE = 0
CLASSIFICATION_TYPE = U
NORAD_CAT_ID   = 68296
ELEMENT_SET_NO = 999
REV_AT_EPOCH   = 325
BSTAR          = -.78092783E-2
MEAN_MOTION_DOT = -.1492782E-1
MEAN_MOTION_DDOT = 0

CCSDS_OMM_VERS = 2.0
CREATION_DATE  = 
ORIGINATOR     = 

OBJECT_NAME    = STARLINK-37115
OBJECT_ID      = 2026-057D
CENTER_NAME    = EARTH
REF_FRAME      = TEME
TIME_SYSTEM    = UTC
MEAN_ELEMENT_THEORY = SGP/SGP4

EPOCH          = 2026-04-04T22:00:01.999584
MEAN_MOTION    = 15.83369320
ECCENTRICITY   = .00015576
INCLINATION    = 97.2810
RA_OF_ASC_NODE = 218.5768
ARG_OF_PERICENTER = 83.9421
MEAN_ANOMALY   = 58.1995

EPHEMERIS_TYPE = 0
CLASSIFICATION_TYPE = U
NORAD_CAT_ID   = 68297
ELEMENT_SET_NO = 999
REV_AT_EPOCH   = 325
BSTAR          = -.76932127E-2
MEAN_MOTION_DOT = -.1470592E-1
MEAN_MOTION_DDOT = 0

CCSDS_OMM_VERS = 2.0
CREATION_DATE  = 
ORIGINATOR     = 

OBJECT_NAME    = STARLINK-36355
OBJECT_ID      = 2026-057E
CENTER_NAME    = EARTH
REF_FRAME      = TEME
TIME_SYSTEM    = UTC
MEAN_ELEMENT_THEORY = SGP/SGP4

EPOCH          = 2026-04-04T22:00:01.999584
MEAN_MOTION    = 15.83380429
ECCENTRICITY   = .00013267
INCLINATION    = 97.2816
RA_OF_ASC_NODE = 218.5760
ARG_OF_PERICENTER = 83.3865
MEAN_ANOMALY   = 54.3428

EPHEMERIS_TYPE = 0
CLASSIFICATION_TYPE = U
NORAD_CAT_ID   = 68298
ELEMENT_SET_NO = 999
REV_AT_EPOCH   = 352
BSTAR          = -.74910959E-2
MEAN_MOTION_DOT = -.1408911E-1
MEAN_MOTION_DDOT = 0

CCSDS_OMM_VERS = 2.0
CREATION_DATE  = 
ORIGINATOR     = 

OBJECT_NAME    = STARLINK-37118
OBJECT_ID      = 2026-057F
CENTER_NAME    = EARTH
REF_FRAME      = TEME
TIME_SYSTEM    = UTC
MEAN_ELEMENT_THEORY = SGP/SGP4

EPOCH          = 2026-04-04T22:00:01.999584
MEAN_MOTION    = 15.83416184
ECCENTRICITY   = .00016594
INCLINATION    = 97.2804
RA_OF_ASC_NODE = 218.5825
ARG_OF_PERICENTER = 76.3981
MEAN_ANOMALY   = 78.6450

EPHEMERIS_TYPE = 0
CLASSIFICATION_TYPE = U
NORAD_CAT_ID   = 68299
ELEMENT_SET_NO = 999
REV_AT_EPOCH   = 336
BSTAR          = -.82543586E-2
MEAN_MOTION_DOT = -.1567997E-1
MEAN_MOTION_DDOT = 0

CCSDS_OMM_VERS = 2.0
CREATION_DATE  = 
ORIGINATOR     = 

OBJECT_NAME    = STARLINK-36875
OBJECT_ID      = 2026-057G
CENTER_NAME    = EARTH
REF_FRAME      = TEME
TIME_SYSTEM    = UTC
MEAN_ELEMENT_THEORY = SGP/SGP4

EPOCH          = 2026-04-04T22:00:01.999584
MEAN_MOTION    = 15.83385941
ECCENTRICITY   = .00017038
INCLINATION    = 97.2809
RA_OF_ASC_NODE = 218.5810
ARG_OF_PERICENTER = 76.9045
MEAN_ANOMALY   = 73.9213

EPHEMERIS_TYPE = 0
CLASSIFICATION_TYPE = U
NORAD_CAT_ID   = 68300
ELEMENT_SET_NO = 999
REV_AT_EPOCH   = 342
BSTAR          = -.81860278E-2
MEAN_MOTION_DOT = -.1554663E-1
MEAN_MOTION_DDOT = 0

CCSDS_OMM_VERS = 2.0
CREATION_DATE  = 
ORIGINATOR     = 

OBJECT_NAME    = STARLINK-37099
OBJECT_ID      = 2026-057H
CENTER_NAME    = EARTH
REF_FRAME      = TEME
TIME_SYSTEM    = UTC
MEAN_ELEMENT_THEORY = SGP/SGP4

EPOCH          = 2026-04-04T22:00:01.999584
MEAN_MOTION    = 15.83334871
ECCENTRICITY   = .00017347
INCLINATION    = 97.2800
RA_OF_ASC_NODE = 218.5847
ARG_OF_PERICENTER = 80.1221
MEAN_ANOMALY   = 79.4680

EPHEMERIS_TYPE = 0
CLASSIFICATION_TYPE = U
NORAD_CAT_ID   = 68301
ELEMENT_SET_NO = 999
REV_AT_EPOCH   = 325
BSTAR          = -.84348766E-2
MEAN_MOTION_DOT = -.1592681E-1
MEAN_MOTION_DDOT = 0

CCSDS_OMM_VERS = 2.0
CREATION_DATE  = 
ORIGINATOR     = 

OBJECT_NAME    = STARLINK-37007
OBJECT_ID      = 2026-057J
CENTER_NAME    = EARTH
REF_FRAME      = TEME
TIME_SYSTEM    = UTC
MEAN_ELEMENT_THEORY = SGP/SGP4

EPOCH          = 2026-04-04T22:00:01.999584
MEAN_MOTION    = 15.83159583
ECCENTRICITY   = .00016288
INCLINATION    = 97.2793
RA_OF_ASC_NODE = 218.5877
ARG_OF_PERICENTER = 88.0897
MEAN_ANOMALY   = 80.5372

EPHEMERIS_TYPE = 0
CLASSIFICATION_TYPE = U
NORAD_CAT_ID   = 68302
ELEMENT_SET_NO = 999
REV_AT_EPOCH   = 347
BSTAR          = -.86189784E-2
MEAN_MOTION_DOT = -.1611187E-1
MEAN_MOTION_DDOT = 0

CCSDS_OMM_VERS = 2.0
CREATION_DATE  = 
ORIGINATOR     = 

OBJECT_NAME    = STARLINK-36300
OBJECT_ID      = 2026-057K
CENTER_NAME    = EARTH
REF_FRAME      = TEME
TIME_SYSTEM    = UTC
MEAN_ELEMENT_THEORY = SGP/SGP4

EPOCH          = 2026-04-04T22:00:01.999584
MEAN_MOTION    = 15.83212989
ECCENTRICITY   = .00016531
INCLINATION    = 97.2795
RA_OF_ASC_NODE = 218.5859
ARG_OF_PERICENTER = 87.0418
MEAN_ANOMALY   = 77.1579

EPHEMERIS_TYPE = 0
CLASSIFICATION_TYPE = U
NORAD_CAT_ID   = 68303
ELEMENT_SET_NO = 999
REV_AT_EPOCH   = 352
BSTAR          = -.85326809E-2
MEAN_MOTION_DOT = -.1600638E-1
MEAN_MOTION_DDOT = 0

CCSDS_OMM_VERS = 2.0
CREATION_DATE  = 
ORIGINATOR     = 

OBJECT_NAME    = STARLINK-36849
OBJECT_ID      = 2026-057L
CENTER_NAME    = EARTH
REF_FRAME      = TEME
TIME_SYSTEM    = UTC
MEAN_ELEMENT_THEORY = SGP/SGP4

EPOCH          = 2026-04-04T22:00:01.999584
MEAN_MOTION    = 15.83182755
ECCENTRICITY   = .00017099
INCLINATION    = 97.2791
RA_OF_ASC_NODE = 218.5898
ARG_OF_PERICENTER = 80.0299
MEAN_ANOMALY   = 92.8229

EPHEMERIS_TYPE = 0
CLASSIFICATION_TYPE = U
NORAD_CAT_ID   = 68304
ELEMENT_SET_NO = 999
REV_AT_EPOCH   = 342
BSTAR          = -.86469679E-2
MEAN_MOTION_DOT = -.1617375E-1
MEAN_MOTION_DDOT = 0

CCSDS_OMM_VERS = 2.0
CREATION_DATE  = 
ORIGINATOR     = 

OBJECT_NAME    = STARLINK-36277
OBJECT_ID      = 2026-057M
CENTER_NAME    = EARTH
REF_FRAME      = TEME
TIME_SYSTEM    = UTC
MEAN_ELEMENT_THEORY = SGP/SGP4

EPOCH          = 2026-04-04T22:00:01.999584
MEAN_MOTION    = 15.83137845
ECCENTRICITY   = .00016539
INCLINATION    = 97.2781
RA_OF_ASC_NODE = 218.5925
ARG_OF_PERICENTER = 88.5963
MEAN_ANOMALY   = 92.9471

EPHEMERIS_TYPE = 0
CLASSIFICATION_TYPE = U
NORAD_CAT_ID   = 68305
ELEMENT_SET_NO = 999
REV_AT_EPOCH   = 358
BSTAR          = -.87695171E-2
MEAN_MOTION_DOT = -.1634257E-1
MEAN_MOTION_DDOT = 0

